[{"OBJECT_NAME":"ZY-1 02D","OBJECT_ID":"2019-059A","EPOCH":"2026-03-09T22:47:25.027872","MEAN_MOTION":14.35449537,"ECCENTRICITY":0.00025574,"INCLINATION":98.3302,"RA_OF_ASC_NODE":133.9003,"ARG_OF_PERICENTER":74.5944,"MEAN_ANOMALY":285.5525,"EPHEMERIS_TYPE":0,"CLASSIFICATION_TYPE":"U","NORAD_CAT_ID":44528,"ELEMENT_SET_NO":999,"REV_AT_EPOCH":34010,"BSTAR":2.8589968e-5,"MEAN_MOTION_DOT":4.0e-7,"MEAN_MOTION_DDOT":0},{"OBJECT_NAME":"COSMOS 1275 DEB","OBJECT_ID":"1981-053MC","EPOCH":"2026-03-09T09:20:20.611680","MEAN_MOTION":14.3047592,"ECCENTRICITY":0.00236236,"INCLINATION":82.7055,"RA_OF_ASC_NODE":201.3762,"ARG_OF_PERICENTER":105.4245,"MEAN_ANOMALY":254.9553,"EPHEMERIS_TYPE":0,"CLASSIFICATION_TYPE":"U","NORAD_CAT_ID":19025,"ELEMENT_SET_NO":999,"REV_AT_EPOCH":8896,"BSTAR":0.0021716511,"MEAN_MOTION_DOT":5.688e-5,"MEAN_MOTION_DDOT":0}]
